<?xml version="1.0" encoding="UTF-8"?>
<kml xmlns="http://www.opengis.net/kml/2.2" xmlns:gx="http://www.google.com/kml/ext/2.2" xmlns:kml="http://www.opengis.net/kml/2.2" xmlns:atom="http://www.w3.org/2005/Atom">
<Document>
    <name>Sat Apr 12 08:30:23 2025</name>
    <Placemark>
	<name>Площадь Оболенского-Ноготкова</name>
	<LookAt>
	    <longitude>47.88658214785224</longitude>
	    <latitude>56.63153245936853</latitude>
	    <altitude>0</altitude>
	    <heading>246.735563667936</heading>
	    <tilt>9.23089298826753</tilt>
	    <range>25955.41874594071</range>
	    <gx:altitudeMode>relativeToSeaFloor</gx:altitudeMode>
	</LookAt>
	<Point>
	    <gx:drawOrder>1</gx:drawOrder>
	    <coordinates>47.88658214785224,56.63153245936853,0</coordinates>
	</Point>
    </Placemark>
    <Placemark>
	<name>Бульвар Чавайна</name>
	<LookAt>
	    <longitude>47.911503541121355</longitude>
	    <latitude>56.63196055287305</latitude>
	    <altitude>0</altitude>
	    <heading>105.299820569144</heading>
	    <tilt>6.03846692591896</tilt>
	    <range>25955.41874594071</range>
	    <gx:altitudeMode>relativeToSeaFloor</gx:altitudeMode>
	</LookAt>
	<Point>
	    <gx:drawOrder>1</gx:drawOrder>
	    <coordinates>47.911503541121355,56.63196055287305,0</coordinates>
	</Point>
    </Placemark>
    <Placemark>
	<name>Центральный парк</name>
	<LookAt>
	    <longitude>47.89245090640908</longitude>
	    <latitude>56.635667091566084</latitude>
	    <altitude>0</altitude>
	    <heading>55.277367860874</heading>
	    <tilt>24.57528810667</tilt>
	    <range>25955.41874594071</range>
	    <gx:altitudeMode>relativeToSeaFloor</gx:altitudeMode>
	</LookAt>
	<Point>
	    <gx:drawOrder>1</gx:drawOrder>
	    <coordinates>47.89245090640908,56.635667091566084,0</coordinates>
	</Point>
    </Placemark>
    <Placemark>
	<name>Набережная Брюгге</name>
	<LookAt>
	    <longitude>47.91118298833301</longitude>
	    <latitude>56.63662657459565</latitude>
	    <altitude>0</altitude>
	    <heading>262.239964243736</heading>
	    <tilt>5.41426012714572</tilt>
	    <range>25955.41874594071</range>
	    <gx:altitudeMode>relativeToSeaFloor</gx:altitudeMode>
	</LookAt>
	<Point>
	    <gx:drawOrder>1</gx:drawOrder>
	    <coordinates>47.91118298833301,56.63662657459565,0</coordinates>
	</Point>
    </Placemark>
    <Placemark>
	<name>Йошкин-кот</name>
	<LookAt>
	    <longitude>47.88846876744542</longitude>
	    <latitude>56.6310940459517</latitude>
	    <altitude>0</altitude>
	    <heading>42.5885755863017</heading>
	    <tilt>11.3111218369517</tilt>
	    <range>25955.41874594071</range>
	    <gx:altitudeMode>relativeToSeaFloor</gx:altitudeMode>
	</LookAt>
	<Point>
	    <gx:drawOrder>1</gx:drawOrder>
	    <coordinates>47.88846876744542,56.6310940459517,0</coordinates>
	</Point>
    </Placemark>
    <Placemark>
	<name>Йошкина-кошка</name>
	<LookAt>
	    <longitude>47.901697422596335</longitude>
	    <latitude>56.63284074764813</latitude>
	    <altitude>0</altitude>
	    <heading>273.215513586804</heading>
	    <tilt>15.6323636904169</tilt>
	    <range>25955.41874594071</range>
	    <gx:altitudeMode>relativeToSeaFloor</gx:altitudeMode>
	</LookAt>
	<Point>
	    <gx:drawOrder>1</gx:drawOrder>
	    <coordinates>47.901697422596335,56.63284074764813,0</coordinates>
	</Point>
    </Placemark>
    <Placemark>
	<name>Часы 12 апостолов</name>
	<LookAt>
	    <longitude>47.906817507371876</longitude>
	    <latitude>56.63720607128329</latitude>
	    <altitude>0</altitude>
	    <heading>109.771310672879</heading>
	    <tilt>2.47372117341488</tilt>
	    <range>25955.41874594071</range>
	    <gx:altitudeMode>relativeToSeaFloor</gx:altitudeMode>
	</LookAt>
	<Point>
	    <gx:drawOrder>1</gx:drawOrder>
	    <coordinates>47.906817507371876,56.63720607128329,0</coordinates>
	</Point>
    </Placemark>
    <Placemark>
	<name>Культурно-исторический комплекс Царевококшайский Кремль</name>
	<LookAt>
	    <longitude>47.90047650552351</longitude>
	    <latitude>56.63742997213698</latitude>
	    <altitude>0</altitude>
	    <heading>62.9527432829826</heading>
	    <tilt>38.9967503391602</tilt>
	    <range>25955.41874594071</range>
	    <gx:altitudeMode>relativeToSeaFloor</gx:altitudeMode>
	</LookAt>
	<Point>
	    <gx:drawOrder>1</gx:drawOrder>
	    <coordinates>47.90047650552351,56.63742997213698,0</coordinates>
	</Point>
    </Placemark>
    <Placemark>
	<name>Дерево жизни</name>
	<LookAt>
	    <longitude>47.89111418487163</longitude>
	    <latitude>56.636262443966004</latitude>
	    <altitude>0</altitude>
	    <heading>85.380214882971</heading>
	    <tilt>0.866040890327042</tilt>
	    <range>25955.41874594071</range>
	    <gx:altitudeMode>relativeToSeaFloor</gx:altitudeMode>
	</LookAt>
	<Point>
	    <gx:drawOrder>1</gx:drawOrder>
	    <coordinates>47.89111418487163,56.636262443966004,0</coordinates>
	</Point>
    </Placemark>
    <Placemark>
	<name>Итальянский сад</name>
	<LookAt>
	    <longitude>47.905154972991006</longitude>
	    <latitude>56.63377966321488</latitude>
	    <altitude>0</altitude>
	    <heading>49.0172725660469</heading>
	    <tilt>18.2839829368741</tilt>
	    <range>25955.41874594071</range>
	    <gx:altitudeMode>relativeToSeaFloor</gx:altitudeMode>
	</LookAt>
	<Point>
	    <gx:drawOrder>1</gx:drawOrder>
	    <coordinates>47.905154972991006,56.63377966321488,0</coordinates>
	</Point>
    </Placemark>
    <Placemark>
	<name>Скульптура императрицы Елизаветы</name>
	<LookAt>
	    <longitude>47.91094179997799</longitude>
	    <latitude>56.636388470833445</latitude>
	    <altitude>0</altitude>
	    <heading>331.757915016288</heading>
	    <tilt>14.9953266657877</tilt>
	    <range>25955.41874594071</range>
	    <gx:altitudeMode>relativeToSeaFloor</gx:altitudeMode>
	</LookAt>
	<Point>
	    <gx:drawOrder>1</gx:drawOrder>
	    <coordinates>47.91094179997799,56.636388470833445,0</coordinates>
	</Point>
    </Placemark>
    <Placemark>
	<name>Памятник Молотку</name>
	<LookAt>
	    <longitude>47.89249736744551</longitude>
	    <latitude>56.628255865436344</latitude>
	    <altitude>0</altitude>
	    <heading>99.7262605798949</heading>
	    <tilt>35.469230516814</tilt>
	    <range>25955.41874594071</range>
	    <gx:altitudeMode>relativeToSeaFloor</gx:altitudeMode>
	</LookAt>
	<Point>
	    <gx:drawOrder>1</gx:drawOrder>
	    <coordinates>47.89249736744551,56.628255865436344,0</coordinates>
	</Point>
    </Placemark>
    <Placemark>
	<name>Солнечные часы</name>
	<LookAt>
	    <longitude>47.90099229812943</longitude>
	    <latitude>56.63274936450186</latitude>
	    <altitude>0</altitude>
	    <heading>230.24218598091</heading>
	    <tilt>3.58525214675858</tilt>
	    <range>25955.41874594071</range>
	    <gx:altitudeMode>relativeToSeaFloor</gx:altitudeMode>
	</LookAt>
	<Point>
	    <gx:drawOrder>1</gx:drawOrder>
	    <coordinates>47.90099229812943,56.63274936450186,0</coordinates>
	</Point>
    </Placemark>
    <Placemark>
	<name>РЖД</name>
	<LookAt>
	    <longitude>47.880884940957735</longitude>
	    <latitude>56.621047912134514</latitude>
	    <altitude>0</altitude>
	    <heading>260.129871107962</heading>
	    <tilt>11.105777060649</tilt>
	    <range>25955.41874594071</range>
	    <gx:altitudeMode>relativeToSeaFloor</gx:altitudeMode>
	</LookAt>
	<Point>
	    <gx:drawOrder>1</gx:drawOrder>
	    <coordinates>47.880884940957735,56.621047912134514,0</coordinates>
	</Point>
    </Placemark>
    <Placemark>
	<name>Памятник молодоженам Грейс Келли и Ренье III</name>
	<LookAt>
	    <longitude>47.908803582787485</longitude>
	    <latitude>56.63298486487025</latitude>
	    <altitude>0</altitude>
	    <heading>211.475240658247</heading>
	    <tilt>12.7686622426264</tilt>
	    <range>25955.41874594071</range>
	    <gx:altitudeMode>relativeToSeaFloor</gx:altitudeMode>
	</LookAt>
	<Point>
	    <gx:drawOrder>1</gx:drawOrder>
	    <coordinates>47.908803582787485,56.63298486487025,0</coordinates>
	</Point>
    </Placemark>
    <Placemark>
	<name>Благовещенская башня</name>
	<LookAt>
	    <longitude>47.90284002881348</longitude>
	    <latitude>56.633661565184305</latitude>
	    <altitude>0</altitude>
	    <heading>55.7636233606178</heading>
	    <tilt>17.7192176348221</tilt>
	    <range>25955.41874594071</range>
	    <gx:altitudeMode>relativeToSeaFloor</gx:altitudeMode>
	</LookAt>
	<Point>
	    <gx:drawOrder>1</gx:drawOrder>
	    <coordinates>47.90284002881348,56.633661565184305,0</coordinates>
	</Point>
    </Placemark>
    <Placemark>
	<name>Башенные часы Национальной художественной галереи</name>
	<LookAt>
	    <longitude>47.887045440458415</longitude>
	    <latitude>56.6318733692961</latitude>
	    <altitude>0</altitude>
	    <heading>10.3904547507399</heading>
	    <tilt>44.2303639147731</tilt>
	    <range>25955.41874594071</range>
	    <gx:altitudeMode>relativeToSeaFloor</gx:altitudeMode>
	</LookAt>
	<Point>
	    <gx:drawOrder>1</gx:drawOrder>
	    <coordinates>47.887045440458415,56.6318733692961,0</coordinates>
	</Point>
    </Placemark>
    <Placemark>
	<name>Памятник Петру и Февронии</name>
	<LookAt>
	    <longitude>47.90812178278768</longitude>
	    <latitude>56.63641416929546</latitude>
	    <altitude>0</altitude>
	    <heading>220.690701397914</heading>
	    <tilt>0.468050882025981</tilt>
	    <range>25955.41874594071</range>
	    <gx:altitudeMode>relativeToSeaFloor</gx:altitudeMode>
	</LookAt>
	<Point>
	    <gx:drawOrder>1</gx:drawOrder>
	    <coordinates>47.90812178278768,56.63641416929546,0</coordinates>
	</Point>
    </Placemark>
    <Placemark>
	<name>ЖД-вокзал</name>
	<LookAt>
	    <longitude>47.88002142624394</longitude>
	    <latitude>56.621740917152074</latitude>
	    <altitude>0</altitude>
	    <heading>19.9686014684447</heading>
	    <tilt>12.9622421364568</tilt>
	    <range>25955.41874594071</range>
	    <gx:altitudeMode>relativeToSeaFloor</gx:altitudeMode>
	</LookAt>
	<Point>
	    <gx:drawOrder>1</gx:drawOrder>
	    <coordinates>47.88002142624394,56.621740917152074,0</coordinates>
	</Point>
    </Placemark>
    <Placemark>
	<name>Музей сыра</name>
	<LookAt>
	    <longitude>47.90689582374056</longitude>
	    <latitude>56.63051678858371</latitude>
	    <altitude>0</altitude>
	    <heading>15.3754883160923</heading>
	    <tilt>35.9028935760879</tilt>
	    <range>25955.41874594071</range>
	    <gx:altitudeMode>relativeToSeaFloor</gx:altitudeMode>
	</LookAt>
	<Point>
	    <gx:drawOrder>1</gx:drawOrder>
	    <coordinates>47.90689582374056,56.63051678858371,0</coordinates>
	</Point>
    </Placemark>
    <Placemark>
	<name>Памятник Гоголю</name>
	<LookAt>
	    <longitude>47.89885992564159</longitude>
	    <latitude>56.62966699958123</latitude>
	    <altitude>0</altitude>
	    <heading>173.221946817242</heading>
	    <tilt>39.0546289764692</tilt>
	    <range>25955.41874594071</range>
	    <gx:altitudeMode>relativeToSeaFloor</gx:altitudeMode>
	</LookAt>
	<Point>
	    <gx:drawOrder>1</gx:drawOrder>
	    <coordinates>47.89885992564159,56.62966699958123,0</coordinates>
	</Point>
    </Placemark>
    <Placemark>
	<name>Сквер</name>
	<LookAt>
	    <longitude>47.90068699962817</longitude>
	    <latitude>56.63460623969043</latitude>
	    <altitude>0</altitude>
	    <heading>92.0635431094612</heading>
	    <tilt>5.45660395092584</tilt>
	    <range>25955.41874594071</range>
	    <gx:altitudeMode>relativeToSeaFloor</gx:altitudeMode>
	</LookAt>
	<Point>
	    <gx:drawOrder>1</gx:drawOrder>
	    <coordinates>47.90068699962817,56.63460623969043,0</coordinates>
	</Point>
    </Placemark>
    <Placemark>
	<name>Музей сказки</name>
	<LookAt>
	    <longitude>47.90101178594066</longitude>
	    <latitude>56.63847872500726</latitude>
	    <altitude>0</altitude>
	    <heading>228.915126858573</heading>
	    <tilt>25.8482659172148</tilt>
	    <range>25955.41874594071</range>
	    <gx:altitudeMode>relativeToSeaFloor</gx:altitudeMode>
	</LookAt>
	<Point>
	    <gx:drawOrder>1</gx:drawOrder>
	    <coordinates>47.90101178594066,56.63847872500726,0</coordinates>
	</Point>
    </Placemark>
    <Placemark>
	<name>Музей керамики и гончарного искусства</name>
	<LookAt>
	    <longitude>47.89901364230709</longitude>
	    <latitude>56.637374272401466</latitude>
	    <altitude>0</altitude>
	    <heading>105.880429152607</heading>
	    <tilt>1.71392764801707</tilt>
	    <range>25955.41874594071</range>
	    <gx:altitudeMode>relativeToSeaFloor</gx:altitudeMode>
	</LookAt>
	<Point>
	    <gx:drawOrder>1</gx:drawOrder>
	    <coordinates>47.89901364230709,56.637374272401466,0</coordinates>
	</Point>
    </Placemark>
    <Placemark>
	<name>Музей истории города Йошкар-Олы</name>
	<LookAt>
	    <longitude>47.902504112449755</longitude>
	    <latitude>56.63803026065868</latitude>
	    <altitude>0</altitude>
	    <heading>51.376220388445</heading>
	    <tilt>39.1570656383146</tilt>
	    <range>25955.41874594071</range>
	    <gx:altitudeMode>relativeToSeaFloor</gx:altitudeMode>
	</LookAt>
	<Point>
	    <gx:drawOrder>1</gx:drawOrder>
	    <coordinates>47.902504112449755,56.63803026065868,0</coordinates>
	</Point>
    </Placemark>
    <Placemark>
	<name>Музей истории и археологии</name>
	<LookAt>
	    <longitude>47.908036542306895</longitude>
	    <latitude>56.631520273424094</latitude>
	    <altitude>0</altitude>
	    <heading>350.277491404978</heading>
	    <tilt>33.0402111376595</tilt>
	    <range>25955.41874594071</range>
	    <gx:altitudeMode>relativeToSeaFloor</gx:altitudeMode>
	</LookAt>
	<Point>
	    <gx:drawOrder>1</gx:drawOrder>
	    <coordinates>47.908036542306895,56.631520273424094,0</coordinates>
	</Point>
    </Placemark>
</Document>
</kml>
